     2              NAVIGATION DATA                         RINEX VERSION / TYPE
CCRINEXN V1.6.0 UX  CDDIS               25-SEP-24 23:31     PGM / RUN BY / DATE 
IGS BROADCAST EPHEMERIS FILE                                COMMENT             
    0.2515D-07  0.2235D-07 -0.1192D-06 -0.1192D-06          ION ALPHA           
    0.1331D+06  0.0000D+00 -0.2621D+06  0.2621D+06          ION BETA            
    0.000000000000D+00 0.177635683940D-14   405504     2333 DELTA-UTC: A0,A1,T,W
    18                                                      LEAP SECONDS        
                                                            END OF HEADER       
30 24  9 24  4  0  0.0-0.315502285957D-03 0.727595761418D-11 0.000000000000D+00
    0.590000000000D+02-0.293750000000D+01 0.524771858854D-08-0.145710203486D+01
   -0.238418579102D-06 0.717951462138D-02 0.711902976036D-05 0.515357277870D+04
    0.187200000000D+06 0.152736902237D-06 0.303277511610D+01 0.558793544769D-08
    0.935878624701D+00 0.223625000000D+03-0.244708446108D+01-0.824248618978D-08
    0.119647840956D-09 0.100000000000D+01 0.233300000000D+04 0.000000000000D+00
    0.200000000000D+01 0.000000000000D+00 0.372529029846D-08 0.590000000000D+02
    0.180018000000D+06 0.400000000000D+01 0.000000000000D+00 0.000000000000D+00
31 24  9 24  4  0  0.0-0.224307645112D-03 0.454747350886D-12 0.000000000000D+00
    0.600000000000D+01-0.965625000000D+01 0.480234289400D-08-0.235784639095D+01
   -0.864267349243D-06 0.106651786482D-01 0.766292214394D-05 0.515378079987D+04
    0.187200000000D+06 0.113621354103D-06 0.305596936772D+01-0.128522515297D-06
    0.954675192431D+00 0.226343750000D+03 0.732264153673D+00-0.786461330700D-08
    0.124648049234D-09 0.100000000000D+01 0.233300000000D+04 0.000000000000D+00
    0.200000000000D+01 0.000000000000D+00-0.130385160446D-07 0.600000000000D+01
    0.180018000000D+06 0.400000000000D+01 0.000000000000D+00 0.000000000000D+00
 3 24  9 24  5 59 44.0 0.548353418708D-03 0.129602995003D-10 0.000000000000D+00
    0.210000000000D+02-0.915937500000D+02 0.387444710056D-08-0.844741903417D+00
   -0.478141009808D-05 0.572334148455D-02 0.693462789059D-05 0.515365970039D+04
    0.194384000000D+06-0.111758708954D-07 0.944046059765D+00 0.121071934700D-06
    0.986063216028D+00 0.257687500000D+03 0.116119925830D+01-0.786354183379D-08
   -0.453590322429D-10 0.100000000000D+01 0.233300000000D+04 0.000000000000D+00
    0.200000000000D+01 0.000000000000D+00 0.139698386192D-08 0.210000000000D+02
    0.191393000000D+06 0.400000000000D+01 0.000000000000D+00 0.000000000000D+00
22 24  9 24  5 59 44.0-0.648451969027D-04-0.363797880709D-11 0.000000000000D+00
    0.150000000000D+02 0.585000000000D+02 0.443732768965D-08 0.303149607805D+01
    0.298395752907D-05 0.140593849355D-01 0.900588929653D-05 0.515369227028D+04
    0.194384000000D+06 0.126659870148D-06-0.211257236814D+01 0.197440385819D-06
    0.960343129552D+00 0.200437500000D+03-0.111211519538D+01-0.767924844295D-08
   -0.218223375594D-09 0.100000000000D+01 0.233300000000D+04 0.000000000000D+00
    0.200000000000D+01 0.000000000000D+00-0.111758708954D-07 0.150000000000D+02
    0.187218000000D+06 0.400000000000D+01 0.000000000000D+00 0.000000000000D+00
24 24  9 24  5 59 44.0-0.486336648464D-03 0.568434188608D-12 0.000000000000D+00
    0.440000000000D+02-0.178125000000D+01 0.532486465913D-08 0.661287571430D+00
   -0.135973095894D-06 0.159640798811D-01 0.749714672566D-05 0.515369303894D+04
    0.194384000000D+06-0.195577740669D-06 0.293481179000D+01 0.912696123123D-07
    0.934430166104D+00 0.223781250000D+03 0.101034843149D+01-0.855321341853D-08
   -0.692886004340D-10 0.100000000000D+01 0.233300000000D+04 0.000000000000D+00
    0.200000000000D+01 0.000000000000D+00 0.232830643654D-08 0.440000000000D+02
    0.188946000000D+06 0.400000000000D+01 0.000000000000D+00 0.000000000000D+00
30 24  9 24  5 59 44.0-0.315451063216D-03 0.727595761418D-11 0.000000000000D+00
    0.800000000000D+01-0.309375000000D+01 0.521628870793D-08-0.409185453085D+00
   -0.242143869400D-07 0.717953103594D-02 0.744313001633D-05 0.515357280350D+04
    0.194384000000D+06 0.484287738800D-07 0.303271567628D+01 0.670552253723D-07
    0.935878939229D+00 0.223812500000D+03-0.244708734742D+01-0.835820529566D-08
    0.104290058385D-09 0.100000000000D+01 0.233300000000D+04 0.000000000000D+00
    0.200000000000D+01 0.000000000000D+00 0.372529029846D-08 0.800000000000D+01
    0.189618000000D+06 0.400000000000D+01 0.000000000000D+00 0.000000000000D+00
 1 24  9 24  6  0  0.0 0.189927406609D-03-0.977706804406D-11 0.000000000000D+00
    0.138000000000D+03 0.596562500000D+02 0.592274670617D-08-0.227527340632D+01
    0.279024243355D-05 0.134767720010D-01 0.820308923721D-05 0.515361697578D+04
    0.194400000000D+06 0.217929482460D-06-0.218708427186D+01-0.540167093277D-07
    0.953689106648D+00 0.214156250000D+03 0.103620202826D+01-0.775603735580D-08
   -0.382158775590D-10 0.100000000000D+01 0.233300000000D+04 0.000000000000D+00
    0.400000000000D+01 0.630000000000D+02-0.195577700000D-07 0.138000000000D+03
    0.187260000000D+06 0.400000000000D+01 0.000000000000D+00 0.000000000000D+00
 2 24  9 24  6  0  0.0-0.351545866579D-03 0.807176547823D-11 0.000000000000D+00
    0.300000000000D+02 0.234375000000D+01 0.455697553061D-08 0.270694661229D+01
    0.292435288429D-06 0.161690500099D-01 0.215321779251D-05 0.515369274902D+04
    0.194400000000D+06 0.311061739922D-06-0.192386042268D+00 0.109896063805D-06
    0.967201242694D+00 0.337593750000D+03-0.112942250080D+01-0.812212403335D-08
   -0.198222542479D-09 0.100000000000D+01 0.233300000000D+04 0.000000000000D+00
    0.200000000000D+01 0.000000000000D+00-0.176951289177D-07 0.300000000000D+02
    0.187218000000D+06 0.400000000000D+01 0.000000000000D+00 0.000000000000D+00
 3 24  9 24  6  0  0.0 0.548354815692D-03 0.129602995003D-10 0.000000000000D+00
    0.830000000000D+02-0.915937500000D+02 0.387480425829D-08-0.842409205930D+00
   -0.478141009808D-05 0.572334416211D-02 0.693462789059D-05 0.515365970039D+04
    0.194400000000D+06-0.111758708954D-07 0.944045923714D+00 0.121071934700D-06
    0.986063207251D+00 0.257687500000D+03 0.116120033793D+01-0.786354183379D-08
   -0.450018745087D-10 0.100000000000D+01 0.233300000000D+04 0.000000000000D+00
    0.400000000000D+01 0.000000000000D+00 0.139698386192D-08 0.830000000000D+02
    0.187218000000D+06 0.400000000000D+01 0.000000000000D+00 0.000000000000D+00
 4 24  9 24  6  0  0.0 0.449418555945D-03 0.704858393874D-11 0.000000000000D+00
    0.168000000000D+03-0.487500000000D+02 0.429982196199D-08 0.223491524597D+01
   -0.247359275818D-05 0.302478508093D-02 0.814348459244D-05 0.515370335770D+04
    0.194400000000D+06-0.335276126862D-07 0.202184937910D+01 0.428408384323D-07
    0.965607794286D+00 0.226437500000D+03-0.300721968837D+01-0.780175354578D-08
    0.294297972978D-09 0.100000000000D+01 0.233300000000D+04 0.000000000000D+00
    0.200000000000D+01 0.000000000000D+00-0.465661287308D-08 0.424000000000D+03
    0.187218000000D+06 0.400000000000D+01 0.000000000000D+00 0.000000000000D+00
 5 24  9 24  6  0  0.0-0.187605153769D-03-0.125055521494D-11 0.000000000000D+00
    0.820000000000D+02-0.723125000000D+02 0.408159858639D-08 0.286312062202D+01
   -0.373087823391D-05 0.586319132708D-02 0.626407563686D-05 0.515368017578D+04
    0.194400000000D+06 0.651925802231D-07 0.891141518981D+00-0.298023223877D-07
    0.973004627011D+00 0.264343750000D+03 0.132966921591D+01-0.781318259327D-08
   -0.217866217860D-10 0.100000000000D+01 0.233300000000D+04 0.000000000000D+00
    0.200000000000D+01 0.000000000000D+00-0.107102096081D-07 0.820000000000D+02
    0.189168000000D+06 0.400000000000D+01 0.000000000000D+00 0.000000000000D+00
 6 24  9 24  6  0  0.0 0.945059582591D-05-0.264890331891D-10 0.000000000000D+00
    0.450000000000D+02-0.590625000000D+01 0.394373570099D-08 0.644680624873D+00
   -0.486150383949D-06 0.306330888998D-02 0.372529029846D-05 0.515370117569D+04
    0.194400000000D+06 0.353902578354D-07-0.914729730051D-01-0.149011611938D-07
    0.989823987811D+00 0.323812500000D+03-0.763961464484D+00-0.796176021070D-08
   -0.159649507186D-09 0.100000000000D+01 0.233300000000D+04 0.000000000000D+00
    0.200000000000D+01 0.000000000000D+00 0.372529029846D-08 0.450000000000D+02
    0.192246000000D+06 0.400000000000D+01 0.000000000000D+00 0.000000000000D+00
 7 24  9 24  6  0  0.0-0.343546271324D-04 0.409272615798D-11 0.000000000000D+00
    0.118000000000D+03-0.340625000000D+01 0.496342103212D-08-0.272290965692D+00
   -0.186264514923D-08 0.187588175759D-01 0.782124698162D-05 0.515360101700D+04
    0.194400000000D+06-0.428408384323D-07 0.303389888442D+01 0.296160578728D-06
    0.950724596787D+00 0.228750000000D+03-0.210011140163D+01-0.837892044424D-08
    0.111076055335D-09 0.100000000000D+01 0.233300000000D+04 0.000000000000D+00
    0.200000000000D+01 0.000000000000D+00-0.107102096081D-07 0.118000000000D+03
    0.187218000000D+06 0.400000000000D+01 0.000000000000D+00 0.000000000000D+00
 8 24  9 24  6  0  0.0 0.362852122635D-03 0.125055521494D-10 0.000000000000D+00
    0.770000000000D+02 0.105781250000D+03 0.478698511143D-08 0.255367636328D+01
    0.544637441635D-05 0.967719184700D-02 0.594183802605D-05 0.515369180870D+04
    0.194400000000D+06-0.201165676117D-06-0.119125604108D+01-0.106170773506D-06
    0.951083046827D+00 0.260375000000D+03 0.369704780259D+00-0.809890878063D-08
    0.203579908492D-10 0.100000000000D+01 0.233300000000D+04 0.000000000000D+00
    0.200000000000D+01 0.000000000000D+00 0.465661287308D-08 0.770000000000D+02
    0.187218000000D+06 0.400000000000D+01 0.000000000000D+00 0.000000000000D+00
